KUIPER-00095            
1 65134U 25171C   25281.95684590  .00077016  00000+0  20937-2 0  9992
2 65134  51.8754 122.8311 0004479   1.3864 358.7135 15.36856146 10238
KUIPER-00096            
1 65135U 25171D   25281.29463980  .00038707  00000+0  10450-2 0  9991
2 65135  51.8715 125.8943 0004087 348.6483  11.4411 15.37381275 10135
KUIPER-00097            
1 65136U 25171E   25282.02302286  .00050526  00000+0  14583-2 0  9999
2 65136  51.8749 122.5232 0005283 344.8319  15.2507 15.35175201 10230
KUIPER-00098            
1 65137U 25171F   25282.01082087  .00045129  00000+0  14765-2 0  9998
2 65137  51.8754 122.4535 0010504 352.4593   7.6231 15.31200715  9583
KUIPER-00099            
1 65138U 25171G   25281.93650756  .00057236  00000+0  15267-2 0  9993
2 65138  51.8761 122.7088 0005357 323.0405  37.0212 15.37575137 10222
KUIPER-00100            
1 65139U 25171H   25281.29459015  .00047986  00000+0  12944-2 0  9998
2 65139  51.8756 125.8943 0004756 330.5423  29.5295 15.37307800 10122
KUIPER-00102            
1 65140U 25171J   25281.95746257  .00068244  00000+0  18529-2 0  9995
2 65140  51.8742 122.8324 0004158 352.9876   7.1051 15.36951816 10229
KUIPER-00103            
1 65141U 25171K   25281.58655167 -.00012129  00000+0 -62878-3 0  9994
2 65141  51.8857 126.3298 0004248 333.3682  26.7076 15.14848746 10142
