<?xml version="1.0" encoding="UTF-8"?>
<ndm xmlns:xsi="http://www.w3.org/2001/XMLSchema-instance" xsi:noNamespaceSchemaLocation="https://sanaregistry.org/r/ndmxml_unqualified/ndmxml-2.0.0-master-2.0.xsd">
<omm id="CCSDS_OMM_VERS" version="2.0">
<header><CREATION_DATE/><ORIGINATOR/></header><body><segment><metadata><OBJECT_NAME>KUIPER-00095</OBJECT_NAME><OBJECT_ID>2025-171C</OBJECT_ID><CENTER_NAME>EARTH</CENTER_NAME><REF_FRAME>TEME</REF_FRAME><TIME_SYSTEM>UTC</TIME_SYSTEM><MEAN_ELEMENT_THEORY>SGP4</MEAN_ELEMENT_THEORY></metadata><data><meanElements><EPOCH>2025-10-08T22:57:51.485760</EPOCH><MEAN_MOTION>15.36856146</MEAN_MOTION><ECCENTRICITY>.0004479</ECCENTRICITY><INCLINATION>51.8754</INCLINATION><RA_OF_ASC_NODE>122.8311</RA_OF_ASC_NODE><ARG_OF_PERICENTER>1.3864</ARG_OF_PERICENTER><MEAN_ANOMALY>358.7135</MEAN_ANOMALY></meanElements><tleParameters><EPHEMERIS_TYPE>0</EPHEMERIS_TYPE><CLASSIFICATION_TYPE>U</CLASSIFICATION_TYPE><NORAD_CAT_ID>65134</NORAD_CAT_ID><ELEMENT_SET_NO>999</ELEMENT_SET_NO><REV_AT_EPOCH>1023</REV_AT_EPOCH><BSTAR>.20937E-2</BSTAR><MEAN_MOTION_DOT>.77016E-3</MEAN_MOTION_DOT><MEAN_MOTION_DDOT>0</MEAN_MOTION_DDOT></tleParameters></data></segment></body></omm>
<omm id="CCSDS_OMM_VERS" version="2.0">
<header><CREATION_DATE/><ORIGINATOR/></header><body><segment><metadata><OBJECT_NAME>KUIPER-00096</OBJECT_NAME><OBJECT_ID>2025-171D</OBJECT_ID><CENTER_NAME>EARTH</CENTER_NAME><REF_FRAME>TEME</REF_FRAME><TIME_SYSTEM>UTC</TIME_SYSTEM><MEAN_ELEMENT_THEORY>SGP4</MEAN_ELEMENT_THEORY></metadata><data><meanElements><EPOCH>2025-10-08T07:04:16.878720</EPOCH><MEAN_MOTION>15.37381275</MEAN_MOTION><ECCENTRICITY>.00040873</ECCENTRICITY><INCLINATION>51.8715</INCLINATION><RA_OF_ASC_NODE>125.8943</RA_OF_ASC_NODE><ARG_OF_PERICENTER>348.6483</ARG_OF_PERICENTER><MEAN_ANOMALY>11.4411</MEAN_ANOMALY></meanElements><tleParameters><EPHEMERIS_TYPE>0</EPHEMERIS_TYPE><CLASSIFICATION_TYPE>U</CLASSIFICATION_TYPE><NORAD_CAT_ID>65135</NORAD_CAT_ID><ELEMENT_SET_NO>999</ELEMENT_SET_NO><REV_AT_EPOCH>1013</REV_AT_EPOCH><BSTAR>.10450346E-2</BSTAR><MEAN_MOTION_DOT>.38707E-3</MEAN_MOTION_DOT><MEAN_MOTION_DDOT>0</MEAN_MOTION_DDOT></tleParameters></data></segment></body></omm>
<omm id="CCSDS_OMM_VERS" version="2.0">
<header><CREATION_DATE/><ORIGINATOR/></header><body><segment><metadata><OBJECT_NAME>KUIPER-00097</OBJECT_NAME><OBJECT_ID>2025-171E</OBJECT_ID><CENTER_NAME>EARTH</CENTER_NAME><REF_FRAME>TEME</REF_FRAME><TIME_SYSTEM>UTC</TIME_SYSTEM><MEAN_ELEMENT_THEORY>SGP4</MEAN_ELEMENT_THEORY></metadata><data><meanElements><EPOCH>2025-10-09T00:33:09.175104</EPOCH><MEAN_MOTION>15.35175201</MEAN_MOTION><ECCENTRICITY>.0005283</ECCENTRICITY><INCLINATION>51.8749</INCLINATION><RA_OF_ASC_NODE>122.5232</RA_OF_ASC_NODE><ARG_OF_PERICENTER>344.8319</ARG_OF_PERICENTER><MEAN_ANOMALY>15.2507</MEAN_ANOMALY></meanElements><tleParameters><EPHEMERIS_TYPE>0</EPHEMERIS_TYPE><CLASSIFICATION_TYPE>U</CLASSIFICATION_TYPE><NORAD_CAT_ID>65136</NORAD_CAT_ID><ELEMENT_SET_NO>999</ELEMENT_SET_NO><REV_AT_EPOCH>1023</REV_AT_EPOCH><BSTAR>.14583E-2</BSTAR><MEAN_MOTION_DOT>.50526E-3</MEAN_MOTION_DOT><MEAN_MOTION_DDOT>0</MEAN_MOTION_DDOT></tleParameters></data></segment></body></omm>
<omm id="CCSDS_OMM_VERS" version="2.0">
<header><CREATION_DATE/><ORIGINATOR/></header><body><segment><metadata><OBJECT_NAME>KUIPER-00098</OBJECT_NAME><OBJECT_ID>2025-171F</OBJECT_ID><CENTER_NAME>EARTH</CENTER_NAME><REF_FRAME>TEME</REF_FRAME><TIME_SYSTEM>UTC</TIME_SYSTEM><MEAN_ELEMENT_THEORY>SGP4</MEAN_ELEMENT_THEORY></metadata><data><meanElements><EPOCH>2025-10-09T00:15:34.923168</EPOCH><MEAN_MOTION>15.31200715</MEAN_MOTION><ECCENTRICITY>.0010504</ECCENTRICITY><INCLINATION>51.8754</INCLINATION><RA_OF_ASC_NODE>122.4535</RA_OF_ASC_NODE><ARG_OF_PERICENTER>352.4593</ARG_OF_PERICENTER><MEAN_ANOMALY>7.6231</MEAN_ANOMALY></meanElements><tleParameters><EPHEMERIS_TYPE>0</EPHEMERIS_TYPE><CLASSIFICATION_TYPE>U</CLASSIFICATION_TYPE><NORAD_CAT_ID>65137</NORAD_CAT_ID><ELEMENT_SET_NO>999</ELEMENT_SET_NO><REV_AT_EPOCH>958</REV_AT_EPOCH><BSTAR>.14765E-2</BSTAR><MEAN_MOTION_DOT>.45129E-3</MEAN_MOTION_DOT><MEAN_MOTION_DDOT>0</MEAN_MOTION_DDOT></tleParameters></data></segment></body></omm>
<omm id="CCSDS_OMM_VERS" version="2.0">
<header><CREATION_DATE/><ORIGINATOR/></header><body><segment><metadata><OBJECT_NAME>KUIPER-00099</OBJECT_NAME><OBJECT_ID>2025-171G</OBJECT_ID><CENTER_NAME>EARTH</CENTER_NAME><REF_FRAME>TEME</REF_FRAME><TIME_SYSTEM>UTC</TIME_SYSTEM><MEAN_ELEMENT_THEORY>SGP4</MEAN_ELEMENT_THEORY></metadata><data><meanElements><EPOCH>2025-10-08T22:28:34.253184</EPOCH><MEAN_MOTION>15.37575137</MEAN_MOTION><ECCENTRICITY>.0005357</ECCENTRICITY><INCLINATION>51.8761</INCLINATION><RA_OF_ASC_NODE>122.7088</RA_OF_ASC_NODE><ARG_OF_PERICENTER>323.0405</ARG_OF_PERICENTER><MEAN_ANOMALY>37.0212</MEAN_ANOMALY></meanElements><tleParameters><EPHEMERIS_TYPE>0</EPHEMERIS_TYPE><CLASSIFICATION_TYPE>U</CLASSIFICATION_TYPE><NORAD_CAT_ID>65138</NORAD_CAT_ID><ELEMENT_SET_NO>999</ELEMENT_SET_NO><REV_AT_EPOCH>1022</REV_AT_EPOCH><BSTAR>.15267E-2</BSTAR><MEAN_MOTION_DOT>.57236E-3</MEAN_MOTION_DOT><MEAN_MOTION_DDOT>0</MEAN_MOTION_DDOT></tleParameters></data></segment></body></omm>
<omm id="CCSDS_OMM_VERS" version="2.0">
<header><CREATION_DATE/><ORIGINATOR/></header><body><segment><metadata><OBJECT_NAME>KUIPER-00100</OBJECT_NAME><OBJECT_ID>2025-171H</OBJECT_ID><CENTER_NAME>EARTH</CENTER_NAME><REF_FRAME>TEME</REF_FRAME><TIME_SYSTEM>UTC</TIME_SYSTEM><MEAN_ELEMENT_THEORY>SGP4</MEAN_ELEMENT_THEORY></metadata><data><meanElements><EPOCH>2025-10-08T07:04:12.588960</EPOCH><MEAN_MOTION>15.37307800</MEAN_MOTION><ECCENTRICITY>.00047569</ECCENTRICITY><INCLINATION>51.8756</INCLINATION><RA_OF_ASC_NODE>125.8943</RA_OF_ASC_NODE><ARG_OF_PERICENTER>330.5423</ARG_OF_PERICENTER><MEAN_ANOMALY>29.5295</MEAN_ANOMALY></meanElements><tleParameters><EPHEMERIS_TYPE>0</EPHEMERIS_TYPE><CLASSIFICATION_TYPE>U</CLASSIFICATION_TYPE><NORAD_CAT_ID>65139</NORAD_CAT_ID><ELEMENT_SET_NO>999</ELEMENT_SET_NO><REV_AT_EPOCH>1012</REV_AT_EPOCH><BSTAR>.12944233E-2</BSTAR><MEAN_MOTION_DOT>.47986E-3</MEAN_MOTION_DOT><MEAN_MOTION_DDOT>0</MEAN_MOTION_DDOT></tleParameters></data></segment></body></omm>
<omm id="CCSDS_OMM_VERS" version="2.0">
<header><CREATION_DATE/><ORIGINATOR/></header><body><segment><metadata><OBJECT_NAME>KUIPER-00102</OBJECT_NAME><OBJECT_ID>2025-171J</OBJECT_ID><CENTER_NAME>EARTH</CENTER_NAME><REF_FRAME>TEME</REF_FRAME><TIME_SYSTEM>UTC</TIME_SYSTEM><MEAN_ELEMENT_THEORY>SGP4</MEAN_ELEMENT_THEORY></metadata><data><meanElements><EPOCH>2025-10-08T22:58:44.766048</EPOCH><MEAN_MOTION>15.36951816</MEAN_MOTION><ECCENTRICITY>.0004158</ECCENTRICITY><INCLINATION>51.8742</INCLINATION><RA_OF_ASC_NODE>122.8324</RA_OF_ASC_NODE><ARG_OF_PERICENTER>352.9876</ARG_OF_PERICENTER><MEAN_ANOMALY>7.1051</MEAN_ANOMALY></meanElements><tleParameters><EPHEMERIS_TYPE>0</EPHEMERIS_TYPE><CLASSIFICATION_TYPE>U</CLASSIFICATION_TYPE><NORAD_CAT_ID>65140</NORAD_CAT_ID><ELEMENT_SET_NO>999</ELEMENT_SET_NO><REV_AT_EPOCH>1022</REV_AT_EPOCH><BSTAR>.18529E-2</BSTAR><MEAN_MOTION_DOT>.68244E-3</MEAN_MOTION_DOT><MEAN_MOTION_DDOT>0</MEAN_MOTION_DDOT></tleParameters></data></segment></body></omm>
<omm id="CCSDS_OMM_VERS" version="2.0">
<header><CREATION_DATE/><ORIGINATOR/></header><body><segment><metadata><OBJECT_NAME>KUIPER-00103</OBJECT_NAME><OBJECT_ID>2025-171K</OBJECT_ID><CENTER_NAME>EARTH</CENTER_NAME><REF_FRAME>TEME</REF_FRAME><TIME_SYSTEM>UTC</TIME_SYSTEM><MEAN_ELEMENT_THEORY>SGP4</MEAN_ELEMENT_THEORY></metadata><data><meanElements><EPOCH>2025-10-08T14:04:38.064288</EPOCH><MEAN_MOTION>15.14848746</MEAN_MOTION><ECCENTRICITY>.0004248</ECCENTRICITY><INCLINATION>51.8857</INCLINATION><RA_OF_ASC_NODE>126.3298</RA_OF_ASC_NODE><ARG_OF_PERICENTER>333.3682</ARG_OF_PERICENTER><MEAN_ANOMALY>26.7076</MEAN_ANOMALY></meanElements><tleParameters><EPHEMERIS_TYPE>0</EPHEMERIS_TYPE><CLASSIFICATION_TYPE>U</CLASSIFICATION_TYPE><NORAD_CAT_ID>65141</NORAD_CAT_ID><ELEMENT_SET_NO>999</ELEMENT_SET_NO><REV_AT_EPOCH>1014</REV_AT_EPOCH><BSTAR>-.62878E-3</BSTAR><MEAN_MOTION_DOT>-.12129E-3</MEAN_MOTION_DOT><MEAN_MOTION_DDOT>0</MEAN_MOTION_DDOT></tleParameters></data></segment></body></omm>

</ndm>
